FENGYUN 1C DEB          
1 31228U 99025BLJ 26193.76765355  .00000513  00000+0  18066-3 0  9998
2 31228  98.8677 117.1494 0077090 179.8988 237.6645 14.37577992  6129
FENGYUN 1C DEB          
1 31229U 99025BLK 26193.67172118  .00001391  00000+0  62706-3 0  9993
2 31229  98.8578 275.1286 0052867  52.1045 308.4896 14.23123525990970
FENGYUN 1C DEB          
1 31231U 99025BLM 26190.32166017  .00021066  00000+0  21199-2 0  9997
2 31231  98.8692  16.4139 0123314 166.2967 194.1643 14.85662548661087
FENGYUN 1C DEB          
1 31234U 99025BLQ 26189.24104050  .00000193  00000+0  13513-3 0  9998
2 31234  98.7947 182.9107 0073928   3.5143 356.6531 14.08214634756406
FENGYUN 1C DEB          
1 31235U 99025BLR 26190.65037481  .00005997  00000+0  23350-2 0  9995
2 31235  98.4511 335.3481 0166645 132.9092 228.6213 14.22749934661344
FENGYUN 1C DEB          
1 31236U 99025BLS 26193.29751158  .00001728  00000+0  10234-2 0  9998
2 31236  98.5428 135.8941 0301455 185.4006 174.3878 13.88477231639589
FENGYUN 1C DEB          
1 31237U 99025BLT 26192.78580393  .00000646  00000+0  24531-3 0  9997
2 31237  98.4591 191.2958 0089945  83.9353 277.2071 14.31966797  2815
FENGYUN 1C DEB          
1 31239U 99025BLV 26192.54092016  .00000221  00000+0  14777-3 0  9993
2 31239  98.7678 187.0695 0048865 324.0324 163.0261 14.10134080989827
FENGYUN 1C DEB          
1 31240U 99025BLW 26193.24337080  .00000574  00000+0  34720-3 0  9997
2 31240  98.7518 196.8691 0046615 136.6415 285.4316 14.09854467250776
FENGYUN 1C DEB          
1 31241U 99025BLX 26193.40291288  .00000545  00000+0  18750-3 0  9998
2 31241  99.2594   1.6548 0064746 282.9857  76.4104 14.39362533  7135
FENGYUN 1C DEB          
1 31243U 99025BLZ 26193.55230161  .00000584  00000+0  36425-3 0  9991
2 31243  98.7294 231.8997 0063247 291.4985  67.9449 14.07672823722878
FENGYUN 1C DEB          
1 31244U 99025BMA 26189.43466892  .00000238  00000+0  16392-3 0  9993
2 31244  99.0094 257.3332 0100135 315.9549  43.3673 14.06531390605591
FENGYUN 1C DEB          
1 31246U 99025BMC 26189.35663623  .00002174  00000+0  11665-2 0  9995
2 31246  98.7947  36.4835 0146255 118.5958 243.0016 14.08661972646748
FENGYUN 1C DEB          
1 31247U 99025BMD 26193.19058684  .00000922  00000+0  58724-3 0  9995
2 31247  99.3491  93.1000 0057322 201.9885 314.7855 14.05554327984919
FENGYUN 1C DEB          
1 31248U 99025BME 26193.66588860  .00000164  00000+0  15164-3 0  9991
2 31248  99.2410 255.9805 0111811  97.4560  54.9248 13.93101903977749
FENGYUN 1C DEB          
1 31250U 99025BMG 26193.01460424  .00000615  00000+0  38317-3 0  9994
2 31250  98.3774  31.6714 0134143  59.6698 301.7660 14.03762555984813
FENGYUN 1C DEB          
1 31252U 99025BMJ 26189.30348084  .00000642  00000+0  16712-3 0  9995
2 31252  98.3031 207.3968 0210153 266.4368  91.2766 14.40866466  1963
FENGYUN 1C DEB          
1 31253U 99025BMK 26193.43534001 -.00000004  00000+0  19854-4 0  9995
2 31253  99.0502 263.0825 0288352 222.2017 135.6630 14.03842372719680
FENGYUN 1C DEB          
1 31254U 99025BML 26193.10708221  .00000466  00000+0  15320-3 0  9991
2 31254  98.4346 243.8884 0148851 291.8364  95.4078 14.36949326  4327
FENGYUN 1C DEB          
1 31255U 99025BMM 26192.36463943  .00000396  00000+0  17891-3 0  9995
2 31255  99.3153  22.0889 0270567 116.5120 246.4064 14.10125941997694
FENGYUN 1C DEB          
1 31256U 99025BMN 26193.02545256  .00002993  00000+0  12345-2 0  9991
2 31256  98.6649  36.7749 0299835 239.0077 118.1323 14.06005000679480
FENGYUN 1C DEB          
1 31259U 99025BMR 26193.10974603  .00001400  00000+0  71648-3 0  9999
2 31259  99.0018 279.4407 0060499 317.0550 159.9717 14.16264441985601
FENGYUN 1C DEB          
1 31260U 99025BMS 26193.23876219  .00001111  00000+0  38189-3 0  9991
2 31260  98.9468 103.6368 0048259  30.4148 121.1698 14.37499132  2275
FENGYUN 1C DEB          
1 31261U 99025BMT 26193.34895473  .00001309  00000+0  41329-3 0  9996
2 31261  99.0330 163.3914 0049877 330.1079  29.7262 14.41365934  3937
FENGYUN 1C DEB          
1 31262U 99025BMU 26193.74306718  .00001666  00000+0  80047-3 0  9996
2 31262  98.9966 285.3269 0054719 210.3087 302.0418 14.19518384987157
FENGYUN 1C DEB          
1 31264U 99025BMW 26192.20903277  .00000502  00000+0  26287-3 0  9995
2 31264  99.1024  99.8935 0002054  58.6882  96.9702 14.19052102994138
FENGYUN 1C DEB          
1 31266U 99025BMY 26193.49166769  .00000304  00000+0  14424-3 0  9996
2 31266  99.2710 192.4004 0130784  42.0049 107.9213 14.22612492  1939
FENGYUN 1C DEB          
1 31268U 99025BNA 26190.05462933  .00000623  00000+0  39554-3 0  9994
2 31268  98.7339 230.3168 0047196 318.7668  40.9940 14.06862675649617
FENGYUN 1C DEB          
1 31269U 99025BNB 26193.61680853  .00003423  00000+0  68742-3 0  9995
2 31269  98.1602  68.9826 0232713 349.2398  39.3439 14.46577556995479
FENGYUN 1C DEB          
1 31272U 99025BNE 26193.13720488  .00000438  00000+0  20230-3 0  9998
2 31272  99.0686  76.6068 0104449 227.4731 131.7590 14.23403388999960
FENGYUN 1C DEB          
1 31274U 99025BNG 26192.43393891  .00000469  00000+0  35747-3 0  9999
2 31274  99.0154   9.0004 0237649 260.6783  96.7432 13.86057285971253
FENGYUN 1C DEB          
1 31275U 99025BNH 26193.08717783  .00000468  00000+0  31370-3 0  9999
2 31275  98.9238 237.4235 0105480 124.4546 236.6642 14.02940691984498
FENGYUN 1C DEB          
1 31279U 99025BNM 26190.77692183  .00000595  00000+0  25613-3 0  9996
2 31279  98.5134 198.4404 0071554 286.6174  72.7158 14.26825266  1878
FENGYUN 1C DEB          
1 31281U 99025BNP 26193.41346413  .00031481  00000+0  82973-3 0  9995
2 31281  98.4014 359.5069 0077861  84.1444 276.8665 15.35352595 29288
FENGYUN 1C DEB          
1 31282U 99025BNQ 26192.61324877  .00000373  00000+0  11452-3 0  9997
2 31282  99.2254 132.3569 0127923  24.9476 335.7822 14.43788482  1532
FENGYUN 1C DEB          
1 31284U 99025BNS 26193.54553351  .00000457  00000+0  32561-3 0  9990
2 31284  99.7277 305.4326 0142560 207.7825 151.5670 13.98341285981224
FENGYUN 1C DEB          
1 31285U 99025BNT 26193.41583359  .00000199  00000+0  83949-4 0  9998
2 31285  98.5401 173.5209 0197902 287.5843 227.4833 14.26351845  3001
FENGYUN 1C DEB          
1 31286U 99025BNU 26193.80034892  .00003058  00000+0  12814-2 0  9993
2 31286 100.8573 138.8598 0080423  65.1562 295.7946 14.25277059670388
FENGYUN 1C DEB          
1 31287U 99025BNV 26193.16841718  .00001882  00000+0  75265-3 0  9999
2 31287  99.3940 270.3887 0028957 173.1003 187.0581 14.29522456997058
FENGYUN 1C DEB          
1 31293U 99025BPB 26186.77858737  .00000216  00000+0  90731-4 0  9990
2 31293  98.4200 193.2618 0126308 359.2254   0.8714 14.30902628681766
FENGYUN 1C DEB          
1 31294U 99025BPC 26193.44024534  .00000395  00000+0  21183-3 0  9995
2 31294  98.5531 185.4586 0100944  92.0833 269.1905 14.15670513998485
FENGYUN 1C DEB          
1 31295U 99025BPD 26193.76777874  .00000178  00000+0  15156-3 0  9995
2 31295  98.3309   3.7136 0078120  17.8708 342.5177 13.96905268984631
FENGYUN 1C DEB          
1 31296U 99025BPE 26193.30453874  .00020356  00000+0  22485-2 0  9999
2 31296  99.0581 140.0966 0011910 272.7358  87.2491 14.87419788  4739
FENGYUN 1C DEB          
1 31297U 99025BPF 26192.38995456  .00001013  00000+0  20650-3 0  9996
2 31297  98.9635 350.0281 0137136 202.0464 188.1064 14.57805751 23693
FENGYUN 1C DEB          
1 31300U 99025BPJ 26193.82749065  .00001271  00000+0  65550-3 0  9998
2 31300  99.5376 292.8956 0061750 186.1505 300.7077 14.16147300991756
FENGYUN 1C DEB          
1 31302U 99025BPL 26189.45018339  .00001633  00000+0  66440-3 0  9998
2 31302  99.3995 252.4334 0028782 178.3797 197.3279 14.28854595993232
FENGYUN 1C DEB          
1 31303U 99025BPM 26192.88099891  .00000080  00000+0  68214-4 0  9999
2 31303  98.6934 207.4889 0009893 277.9929  82.0120 14.11112891992960
FENGYUN 1C DEB          
1 31311U 99025BPP 26192.21765350  .00001934  00000+0  74404-3 0  9991
2 31311  98.8456 282.1987 0019753 181.2145 208.3064 14.31456907992312
FENGYUN 1C DEB          
1 31312U 99025BPQ 26193.44515578  .00000038  00000+0  53284-4 0  9991
2 31312  98.8716 178.1100 0058336   9.2028 142.1409 14.01136414981100
FENGYUN 1C DEB          
1 31313U 99025BPR 26192.19870415  .00000250  00000+0  13165-3 0  9996
2 31313  99.0062 105.7487 0044005 300.2106  59.4716 14.22547680   298
FENGYUN 1C DEB          
1 31314U 99025BPS 26180.76520979  .00000615  00000+0  39676-3 0  9994
2 31314  98.8316 174.4820 0078894 158.3523 202.1011 14.05109082636099
FENGYUN 1C DEB          
1 31319U 99025BPX 26189.48005426  .00000064  00000+0  97325-4 0  9996
2 31319  98.8105  78.0575 0168497 252.5768 288.0707 13.75898969965447
FENGYUN 1C DEB          
1 31321U 99025BPZ 26189.46688260  .00000108  00000+0  79402-4 0  9995
2 31321  98.7160 268.3064 0028678 308.4522  51.4078 14.13935188603194
FENGYUN 1C DEB          
1 31322U 99025BQA 26188.35920434  .00000165  00000+0  17779-3 0  9996
2 31322  98.5432 235.4887 0238779 176.3350 246.3673 13.73096651651118
FENGYUN 1C DEB          
1 31323U 99025BQB 26186.39131943  .00004427  00000+0  17611-2 0  9997
2 31323  99.4049 245.7516 0031000 209.4222 150.5213 14.28967037669021
FENGYUN 1C DEB          
1 31324U 99025BQC 26191.58754304  .00000096  00000+0  72647-4 0  9997
2 31324  99.1306 122.7557 0050970  71.9612 288.7105 14.14819247994531
FENGYUN 1C DEB          
1 31325U 99025BQD 26186.51103210  .00003382  00000+0  16247-2 0  9992
2 31325  98.9917 288.1003 0067523 359.8294   0.2846 14.18370116626796
FENGYUN 1C DEB          
1 31327U 99025BQF 26193.57574137  .00017194  00000+0  70436-3 0  9995
2 31327  98.9662 238.6876 0067486  24.1925 336.2450 15.22275069 33101
FENGYUN 1C DEB          
1 31328U 99025BQG 26193.87379609  .00000057  00000+0  37527-4 0  9991
2 31328  98.5080 167.3214 0103334 313.2885  45.9712 14.29045918  4619
FENGYUN 1C DEB          
1 31329U 99025BQH 26192.83130156  .00003233  00000+0  52787-3 0  9992
2 31329  98.9048 202.8170 0052713 150.2123 210.2099 14.70794108 57152
